P/2015 A3 (PANSTARRS),e,172.5190,277.0973,249.2629,7.851907,0.0447962,0.85284748,16.0598,02/16.0/2016,2000,g 20.0,4.0
# From MPC 94281
C/2015 B1 (PANSTARRS),e,18.0407,353.3583,188.4431,9.624136,0.0330112,0.37908876,4.8557,02/16.0/2016,2000,g  8.5,4.0
# From MPC 97496
C/2015 B2 (PANSTARRS),h,05/06.5730/2016,105.0881,341.9014,284.7682,1.000295,3.369608,2000,9.5,4.0
# From MPC 94672
P/2015 C1 (TOTAS-Gibbs),e,13.8803,348.8613,178.3885,6.596005,0.0581812,0.56144792,16.9217,02/16.0/2016,2000,g 12.5,4.0
# From MPC 95211
C/2015 C2 (SWAN),e,94.4990,49.5393,334.1290,452.4086,0.0001024,0.99842768,0.0000,03/04.5522/2015,2000,g 14.0,4.0
# From MPC 94282
C/2015 D2 (PANSTARRS),e,31.9258,162.8150,292.4758,12.93061,0.0211971,0.56469105,18.4013,02/16.0/2016,2000,g  8.0,4.0
# From MPC 97496
C/2015 D3 (PANSTARRS),h,04/30.1191/2016,128.5135,156.9804,2.8098,1.002663,8.148836,2000,5.5,4.0
# From MPC 94672
C/2015 D4 (Borisov),e,77.2996,305.7962,314.6748,78.64303,0.0014132,0.98905086,0.0000,10/28.2524/2014,2000,g 12.0,4.0
# From MPC 96866
P/2015 D5 (Kowalski),e,20.4052,74.3418,40.2276,9.086996,0.0359810,0.49640881,24.1751,02/16.0/2016,2000,g  9.0,4.0
# From MPC 96866
P/2015 D6 (Lemmon-PANSTARRS),e,20.2134,46.2433,125.7431,7.210844,0.0509008,0.36712666,11.0107,02/16.0/2016,2000,g 10.5,4.0
# From MPEC 2016-C01
C/2015 ER61 (PANSTARRS),e,6.1892,237.5611,65.4839,3255,0.0000053,0.99967695,0.0000,05/09.8210/2017,2000,g 11.0,2.0
# From MPC 95211
P/2015 F1 (PANSTARRS),e,2.8042,40.4255,187.1711,3.522364,0.1490915,0.27840503,50.3820,02/16.0/2016,2000,g 12.5,4.0
# From MPC 95733
C/2015 F2 (Polonia),e,28.6936,262.5420,352.0388,38.39173,0.0041433,0.96847204,1.2147,02/16.0/2016,2000,g 16.5,4.0
# From MPC 96279
C/2015 F3 (SWAN),e,73.3990,31.6384,57.5587,224.5785,0.0002929,0.99628469,0.0000,03/09.3341/2015,2000,g 14.5,4.0
# From MPC 97496
C/2015 F4 (Jacques),e,48.7053,285.9554,36.3435,115.5213,0.0007938,0.98577000,0.0000,08/10.8542/2015,2000,g 11.0,4.0
# From MPC 95212
C/2015 F5 (SWAN-Xingming),e,149.2202,287.7691,13.3957,15.55824,0.0160607,0.97778942,0.0000,03/28.1179/2015,2000,g 15.5,4.0
# From MPC 97496
C/2015 GX (PANSTARRS),e,90.2568,235.5146,108.9609,16.18435,0.0151377,0.87816770,2.6239,02/16.0/2016,2000,g 14.0,4.0
# From MPC 97496
C/2015 G2 (MASTER),h,05/23.7748/2015,147.5611,110.0590,257.4523,1.000311,0.779820,2000,11.0,4.0
# From MPC 95733
C/2015 H1 (Bressi),e,140.6552,325.8066,21.7623,32.43174,0.0053364,0.94059574,1.7311,02/16.0/2016,2000,g 13.5,4.0
# From MPC 95212
C/2015 H2 (PANSTARRS),h,09/13.2537/2016,33.7052,350.6937,287.8980,1.002603,4.967456,2000,7.5,4.0
# From MPC 95212
C/2015 J1 (PANSTARRS),h,06/29.7771/2014,94.9863,219.9937,315.4550,1.002389,6.019093,2000,8.5,4.0
# From MPC 95212
C/2015 J2 (PANSTARRS),e,17.2800,56.7520,203.6864,251.3351,0.0002474,0.98281003,0.0000,09/08.8805/2015,2000,g 10.0,4.0
# From MPC 95733
P/2015 J3 (NEOWISE),e,8.1249,111.4173,129.2974,3.350628,0.1606996,0.55413399,56.1176,02/16.0/2016,2000,g 16.5,4.0
# From MPC 97496
C/2015 K1 (MASTER),e,29.3840,5.1773,280.1849,180.3617,0.0004069,0.98582275,0.0000,10/13.5736/2014,2000,g  9.0,4.0
# From MPC 95733
C/2015 K2 (PANSTARRS),e,29.1090,223.7084,15.7810,259.9636,0.0002351,0.99440211,0.0000,06/08.8101/2015,2000,g 20.0,4.0
# From MPC 95733
C/2015 K4 (PANSTARRS),h,05/01.7668/2015,80.2547,250.7671,357.5431,1.000153,2.007751,2000,15.0,4.0
# From MPC 95213
P/2015 K5 (PANSTARRS),e,39.9872,134.2676,106.0228,6.699585,0.0568371,0.55426663,14.4651,02/16.0/2016,2000,g 13.5,4.0
# From MPC 95733
C/2015 LC2 (PANSTARRS),h,05/01.8456/2015,93.7087,223.5665,341.8507,1.001668,5.890737,2000,8.0,4.0
# From MPC 95734
C/2015 M1 (PANSTARRS),e,57.3058,100.2876,163.9823,383.7522,0.0001311,0.99454990,0.0000,05/15.6825/2015,2000,g 16.5,4.0
# From MPC 96867
P/2015 M2 (PANSTARRS),e,3.9741,86.6141,224.5901,7.202408,0.0509903,0.17901514,8.7432,02/16.0/2016,2000,g  8.5,4.0
# From MPC 95734
C/2015 M3 (PANSTARRS),e,65.9505,143.0929,123.7559,134.2336,0.0006337,0.97353553,0.0000,08/26.2076/2015,2000,g 12.0,4.0
# From MPC 96867
C/2015 O1 (PANSTARRS),h,02/18.9923/2018,127.2256,299.8508,89.5340,1.000130,3.732422,2000,6.5,4.0
# From MPC 95734
C/2015 P3 (SWAN),e,58.1819,88.1433,132.8695,231.1555,0.0002804,0.99690609,0.0000,07/27.7958/2015,2000,g 15.5,4.0
# From MPC 97496
P/2015 P4 (PANSTARRS),e,8.7137,104.7437,280.8228,6.071575,0.0658798,0.58411386,1.8421,02/16.0/2016,2000,g 14.0,4.0
# From MPEC 2016-C02
P/2015 PD229 (ISON-Cameron),e,2.0268,342.7724,352.3709,7.176787,0.0512636,0.32673125,9.5243,02/16.0/2016,2000,g 11.5,2.0
# From MPC 97497
P/2015 Q1 (Scotti),e,22.6492,203.3100,198.9707,3.429208,0.1552078,0.48917173,24.8078,02/16.0/2016,2000,g 14.0,4.0
# From MPC 96867
P/2015 Q2 (Pimentel),e,146.2016,228.2480,244.4050,7.407787,0.0488845,0.75443615,7.7566,02/16.0/2016,2000,g 15.5,4.0
# From MPC 97497
P/2015 R1 (PANSTARRS),e,22.6678,48.5148,300.5237,5.895871,0.0688465,0.63275315,16.1970,02/16.0/2016,2000,g 14.0,4.0
# From MPC 95734
P/2015 R2 (PANSTARRS),e,15.4591,168.6800,149.7582,4.496135,0.1033820,0.45116397,26.0593,02/16.0/2016,2000,g 14.5,4.0
# From MPC 97497
C/2015 R3 (PANSTARRS),e,83.6057,36.4155,271.9847,3676,0.0000044,0.99866667,0.0000,02/11.8475/2014,2000,g 10.0,4.0
# From MPC 97497
C/2015 T2 (PANSTARRS),p,05/21.4377/2017,124.5222,30.8434,6.932442,51.0583,2000,8.0,4.0
# From MPC 96280
P/2015 T3 (PANSTARRS),e,13.0937,120.5019,178.6330,4.326181,0.1095335,0.50818108,359.9227,12/21.0/2014,2000,g 14.0,4.0
# From MPC 97497
C/2015 T4 (PANSTARRS),e,87.9200,251.7893,270.1337,87.37875,0.0012067,0.97371870,0.0000,06/18.9407/2016,2000,g 11.0,4.0
# From MPC 96867
C/2015 T5 (Sheppard-Tholen),e,11.0452,311.1685,62.4132,28.06756,0.0066282,0.66744600,0.0679,02/16.0/2016,2000,g  7.5,4.0
# From MPC 97497
P/2015 TO19 (Lemmon-PANSTARRS),e,6.4998,321.6466,89.2846,4.562689,0.1011283,0.35881343,357.9796,02/16.0/2016,2000,g 14.0,4.0
# From MPC 97497
C/2015 TQ209 (LINEAR),e,11.3898,224.0848,281.4946,1515,0.0000167,0.99906722,0.0000,08/27.5365/2016,2000,g 10.5,4.0
# From MPC 97497
C/2015 V1 (PANSTARRS),e,139.2306,197.1927,179.6943,8044,0.0000014,0.99946968,0.0000,12/18.2788/2017,2000,g  6.5,4.0
# From MPC 97497
C/2015 V2 (Johnson),h,06/12.6057/2017,49.8659,69.8427,164.9190,1.000970,1.637601,2000,5.0,4.0
# From MPC 97497
C/2015 V3 (PANSTARRS),e,86.2442,2.3383,0.7589,1115,0.0000265,0.99620117,0.0000,11/24.4758/2015,2000,g  9.0,4.0
# From MPC 97497
C/2015 V4 (PANSTARRS),e,60.7483,179.9301,306.6105,18.50524,0.0123812,0.70459785,357.6287,02/16.0/2016,2000,g  8.5,4.0
# From MPEC 2016-CB4
C/2015 VL62 (Lemmon-Yeung-PANSTARRS),h,08/28.7448/2017,165.6106,94.5306,128.3669,1.001726,2.719971,2000,8.0,4.0
# From MPC 97497
C/2015 W1 (Gibbs),h,05/17.2120/2016,87.3112,114.3147,48.1149,1.000778,2.231904,2000,13.0,4.0
# From MPEC 2016-C24
P/2015 W2 (Catalina),e,11.6116,294.2458,117.6339,7.318523,0.0497816,0.63402425,6.8744,02/16.0/2016,2000,g 13.0,4.0
# From MPC 97498
P/2015 X1 (PANSTARRS),e,12.1623,161.7915,219.0225,3.628663,0.1425884,0.42030004,18.3004,02/16.0/2016,2000,g 16.0,4.0
# From MPEC 2016-C33
C/2015 XY1 (Lemmon),p,04/26.8525/2018,148.8541,195.9879,7.954861,281.5910,2000,5.5,4.0
# From MPC 97498
C/2015 X2 (Catalina),e,72.4530,101.0915,41.9997,15.80895,0.0156801,0.87951650,0.8988,02/16.0/2016,2000,g 16.0,4.0
# From MPC 97498
P/2015 X3 (PANSTARRS),e,24.3785,77.3270,306.8854,5.023034,0.0875497,0.43810682,16.8292,02/16.0/2016,2000,g 15.0,4.0
# From MPEC 2016-AC4
C/2015 X4 (Elenin),e,29.5074,262.6363,176.3376,18.13416,0.0127632,0.81279220,1.3337,02/16.0/2016,2000,g 10.0,4.0
# From MPEC 2016-B65
C/2015 X5 (PANSTARRS),p,12/31.2094/2017,124.2570,27.7352,6.802805,122.3183,2000,7.5,4.0
# From MPC 97498
P/2015 X6 (PANSTARRS),e,4.5598,107.1257,326.1934,2.728473,0.2186879,0.15667590,359.8888,03/10.0/2016,2000,g 16.0,4.0
# From MPEC 2016-AC6
C/2015 X7 (ATLAS),p,07/29.9068/2016,57.5631,348.4071,3.685003,139.9055,2000,9.0,4.0
# From MPEC 2016-AC7
C/2015 X8 (NEOWISE),e,155.2878,191.0945,20.2608,18.82385,0.0120682,0.93683297,1.3999,02/16.0/2016,2000,g 16.0,4.0
# From MPEC 2016-C37
C/2015 Y1 (LINEAR),e,71.2170,135.7781,24.7070,284.3632,0.0002055,0.99115893,0.0000,05/15.1777/2016,2000,g  9.0,4.0
# From MPEC 2016-B20
C/2015 YG1 (NEOWISE),e,57.3431,350.5094,102.8131,17.17307,0.0138494,0.87923792,1.9390,02/16.0/2016,2000,g 13.0,4.0
# From MPEC 2016-C21
C/2016 A1 (PANSTARRS),p,11/23.5364/2017,121.1569,10.4004,5.322309,128.2120,2000,6.0,4.0
# From MPEC 2016-B21
P/2016 A2 (Christensen),e,26.9586,291.7058,140.2471,4.744455,0.0953728,0.27065778,23.2053,02/16.0/2016,2000,g 11.5,4.0
# From MPEC 2016-AC9
P/2016 A3 (PANSTARRS),e,8.5665,188.1007,334.2245,7.654550,0.0465398,0.36685753,359.9994,03/11.0/2017,2000,g 10.0,4.0
# From MPEC 2016-B09
C/2016 A5 (PANSTARRS),p,06/28.8486/2015,38.8556,319.7540,2.836940,135.6304,2000,13.5,4.0
# From MPEC 2016-B34
C/2016 A6 (PANSTARRS),p,11/06.9050/2015,121.0198,141.4491,2.417856,300.2329,2000,15.0,4.0
# From MPEC 2016-B62
P/2016 A7 (PANSTARRS),e,17.2772,218.1219,8.9130,2.453489,0.2564649,0.19089558,359.7652,04/06.0/2016,2000,g 16.0,4.0
# From MPEC 2016-B84
C/2016 A8 (LINEAR),e,148.2541,111.3189,129.8953,36.49253,0.0044709,0.94809555,359.1214,02/16.0/2016,2000,g 12.0,4.0
# From MPEC 2016-C22
C/2016 B1 (NEOWISE),p,12/04.7500/2016,50.3641,8.0170,3.229075,232.2243,2000,9.5,4.0
# From MPEC 2016-CJ2
P/2016 BA14 (PANSTARRS),e,18.9280,180.5411,351.8425,3.015100,0.1882571,0.66550984,354.6385,02/16.0/2016,2000,g 21.0,4.0
# From MPEC 2016-CH5
C/2016 C1 (PANSTARRS),p,01/05.5347/2016,56.7239,326.4148,8.524482,181.4226,2000,5.5,4.0
# From AJ 98, 1083
1P/Halley,e,162.2836,58.4918,111.3633,17.85431,0.0130644,0.96781008,143.4636,02/16.0/2016,2000,g  5.5,3.2
# From NK 2573
2P/Encke,e,11.7809,334.5675,186.5510,2.215040,0.2989728,0.84835546,243.9790,02/16.0/2016,2000,g 11.5,6.0
# From MPC 92275
4P/Faye,e,9.1019,199.0712,205.0453,3.833781,0.1312995,0.57076289,82.2839,02/16.0/2016,2000,g  8.0,6.0
# From MPC 95735
6P/d'Arrest,e,19.4818,138.9319,178.1044,3.502787,0.1503431,0.61135570,52.7117,02/16.0/2016,2000,g  7.5,16.0
# From MPC 92984
